{
  "type": "FeatureCollection",
  "features": [
    {
      "type": "Feature",
      "properties": {
        "norad_id": 39160,
        "name": "VNREDSAT 1",
        "group": "resource",
        "lat": -69.34372773949654,
        "lon": -161.94894354390257,
        "alt_km": 685.5300741479332,
        "timestamp": "2025-12-10T09:57:44.361329+00:00",
        "meta_object_name": "VNREDSAT 1",
        "meta_object_id": "2013-021B",
        "meta_epoch": "2025-12-10T03:54:10.337760",
        "meta_mean_motion": 14.64916486,
        "meta_eccentricity": 0.0001304,
        "meta_inclination": 97.9372,
        "meta_ra_of_asc_node": 39.5275,
        "meta_arg_of_pericenter": 78.7836,
        "meta_mean_anomaly": 281.3514,
        "meta_ephemeris_type": 0,
        "meta_classification_type": "U",
        "meta_norad_cat_id": 39160,
        "meta_element_set_no": 999,
        "meta_rev_at_epoch": 67261,
        "meta_bstar": 0.00017957,
        "meta_mean_motion_dot": 9.15e-06,
        "meta_mean_motion_ddot": 0,
        "tle_line1": "1 39160U 13021B   25344.16261965  .00000915  00000+0  17957-3 0  9996",
        "tle_line2": "2 39160  97.9372  39.5275 0001304  78.7836 281.3514 14.64916486672611"
      },
      "geometry": {
        "type": "Point",
        "coordinates": [
          -161.94894354390257,
          -69.34372773949654
        ]
      }
    },
    {
      "type": "Feature",
      "properties": {
        "norad_id": 39227,
        "name": "ARIRANG-5 (KOMPSAT-5)",
        "group": "resource",
        "lat": -1.6144393783540387,
        "lon": 168.96862527005695,
        "alt_km": 555.0899094849137,
        "timestamp": "2025-12-10T09:57:44.361339+00:00",
        "meta_object_name": "ARIRANG-5 (KOMPSAT-5)",
        "meta_object_id": "2013-042A",
        "meta_epoch": "2025-12-10T03:35:04.627104",
        "meta_mean_motion": 15.0448483,
        "meta_eccentricity": 0.0003903,
        "meta_inclination": 97.6141,
        "meta_ra_of_asc_node": 168.4908,
        "meta_arg_of_pericenter": 61.5145,
        "meta_mean_anomaly": 298.6473,
        "meta_ephemeris_type": 0,
        "meta_classification_type": "U",
        "meta_norad_cat_id": 39227,
        "meta_element_set_no": 999,
        "meta_rev_at_epoch": 67543,
        "meta_bstar": 0.00012496,
        "meta_mean_motion_dot": 1.688e-05,
        "meta_mean_motion_ddot": 0,
        "tle_line1": "1 39227U 13042A   25344.14935911  .00001688  00000+0  12496-3 0  9991",
        "tle_line2": "2 39227  97.6141 168.4908 0003903  61.5145 298.6473 15.04484830675437"
      },
      "geometry": {
        "type": "Point",
        "coordinates": [
          168.96862527005695,
          -1.6144393783540387
        ]
      }
    },
    {
      "type": "Feature",
      "properties": {
        "norad_id": 39418,
        "name": "SKYSAT-A",
        "group": "resource",
        "lat": -46.981531384582134,
        "lon": 42.71230839977253,
        "alt_km": 532.6966956386113,
        "timestamp": "2025-12-10T09:57:44.361349+00:00",
        "meta_object_name": "SKYSAT-A",
        "meta_object_id": "2013-066C",
        "meta_epoch": "2025-12-10T02:13:41.984256",
        "meta_mean_motion": 15.1157189,
        "meta_eccentricity": 0.0020679,
        "meta_inclination": 97.4109,
        "meta_ra_of_asc_node": 34.3815,
        "meta_arg_of_pericenter": 246.4285,
        "meta_mean_anomaly": 113.4774,
        "meta_ephemeris_type": 0,
        "meta_classification_type": "U",
        "meta_norad_cat_id": 39418,
        "meta_element_set_no": 999,
        "meta_rev_at_epoch": 65990,
        "meta_bstar": 0.00034689,
        "meta_mean_motion_dot": 5.852e-05,
        "meta_mean_motion_ddot": 0,
        "tle_line1": "1 39418U 13066C   25344.09284704  .00005852  00000+0  34689-3 0  9995",
        "tle_line2": "2 39418  97.4109  34.3815 0020679 246.4285 113.4774 15.11571890659900"
      },
      "geometry": {
        "type": "Point",
        "coordinates": [
          42.71230839977253,
          -46.981531384582134
        ]
      }
    },
    {
      "type": "Feature",
      "properties": {
        "norad_id": 39419,
        "name": "DUBAISAT-2",
        "group": "resource",
        "lat": 57.53648607053452,
        "lon": 166.75581850879448,
        "alt_km": 542.5681787625826,
        "timestamp": "2025-12-10T09:57:44.361360+00:00",
        "meta_object_name": "DUBAISAT-2",
        "meta_object_id": "2013-066D",
        "meta_epoch": "2025-12-10T03:03:22.193280",
        "meta_mean_motion": 15.083124,
        "meta_eccentricity": 0.0010968,
        "meta_inclination": 97.445,
        "meta_ra_of_asc_node": 334.6152,
        "meta_arg_of_pericenter": 330.2823,
        "meta_mean_anomaly": 29.7782,
        "meta_ephemeris_type": 0,
        "meta_classification_type": "U",
        "meta_norad_cat_id": 39419,
        "meta_element_set_no": 999,
        "meta_rev_at_epoch": 65787,
        "meta_bstar": 0.00033425,
        "meta_mean_motion_dot": 5.132e-05,
        "meta_mean_motion_ddot": 0,
        "tle_line1": "1 39419U 13066D   25344.12734020  .00005132  00000+0  33425-3 0  9999",
        "tle_line2": "2 39419  97.4450 334.6152 0010968 330.2823  29.7782 15.08312400657878"
      },
      "geometry": {
        "type": "Point",
        "coordinates": [
          166.75581850879448,
          57.53648607053452
        ]
      }
    },
    {
      "type": "Feature",
      "properties": {
        "norad_id": 39574,
        "name": "GPM-CORE",
        "group": "resource",
        "lat": -46.02200358274603,
        "lon": -168.49342772329058,
        "alt_km": 430.0649266164928,
        "timestamp": "2025-12-10T09:57:44.361370+00:00",
        "meta_object_name": "GPM-CORE",
        "meta_object_id": "2014-009C",
        "meta_epoch": "2025-12-10T03:58:37.178976",
        "meta_mean_motion": 15.45471524,
        "meta_eccentricity": 0.0010511,
        "meta_inclination": 64.9736,
        "meta_ra_of_asc_node": 221.3008,
        "meta_arg_of_pericenter": 270.154,
        "meta_mean_anomaly": 89.8396,
        "meta_ephemeris_type": 0,
        "meta_classification_type": "U",
        "meta_norad_cat_id": 39574,
        "meta_element_set_no": 999,
        "meta_rev_at_epoch": 66861,
        "meta_bstar": 0.00039379,
        "meta_mean_motion_dot": 0.00018808,
        "meta_mean_motion_ddot": 0,
        "tle_line1": "1 39574U 14009C   25344.16570809  .00018808  00000+0  39379-3 0  9994",
        "tle_line2": "2 39574  64.9736 221.3008 0010511 270.1540  89.8396 15.45471524668616"
      },
      "geometry": {
        "type": "Point",
        "coordinates": [
          -168.49342772329058,
          -46.02200358274603
        ]
      }
    },
    {
      "type": "Feature",
      "properties": {
        "norad_id": 39634,
        "name": "SENTINEL-1A",
        "group": "resource",
        "lat": 20.085079246445762,
        "lon": 172.70547801334456,
        "alt_km": 695.5832903071323,
        "timestamp": "2025-12-10T09:57:44.361380+00:00",
        "meta_object_name": "SENTINEL-1A",
        "meta_object_id": "2014-016A",
        "meta_epoch": "2025-12-10T04:17:46.717152",
        "meta_mean_motion": 14.59201121,
        "meta_eccentricity": 0.0001266,
        "meta_inclination": 98.1802,
        "meta_ra_of_asc_node": 349.4579,
        "meta_arg_of_pericenter": 84.5266,
        "meta_mean_anomaly": 275.6078,
        "meta_ephemeris_type": 0,
        "meta_classification_type": "U",
        "meta_norad_cat_id": 39634,
        "meta_element_set_no": 999,
        "meta_rev_at_epoch": 62245,
        "meta_bstar": 7.8512e-05,
        "meta_mean_motion_dot": 3.24e-06,
        "meta_mean_motion_ddot": 0,
        "tle_line1": "1 39634U 14016A   25344.17901293  .00000324  00000+0  78512-4 0  9992",
        "tle_line2": "2 39634  98.1802 349.4579 0001266  84.5266 275.6078 14.59201121622452"
      },
      "geometry": {
        "type": "Point",
        "coordinates": [
          172.70547801334456,
          20.085079246445762
        ]
      }
    },
    {
      "type": "Feature",
      "properties": {
        "norad_id": 39731,
        "name": "KAZEOSAT 1",
        "group": "resource",
        "lat": -78.94839012123259,
        "lon": 105.08241251315867,
        "alt_km": 759.8035601920801,
        "timestamp": "2025-12-10T09:57:44.361390+00:00",
        "meta_object_name": "KAZEOSAT 1",
        "meta_object_id": "2014-024A",
        "meta_epoch": "2025-12-10T05:20:59.238240",
        "meta_mean_motion": 14.42060311,
        "meta_eccentricity": 0.0001085,
        "meta_inclination": 98.3433,
        "meta_ra_of_asc_node": 56.1865,
        "meta_arg_of_pericenter": 95.2093,
        "meta_mean_anomaly": 264.9221,
        "meta_ephemeris_type": 0,
        "meta_classification_type": "U",
        "meta_norad_cat_id": 39731,
        "meta_element_set_no": 999,
        "meta_rev_at_epoch": 61132,
        "meta_bstar": 0.00012379,
        "meta_mean_motion_dot": 3.64e-06,
        "meta_mean_motion_ddot": 0,
        "tle_line1": "1 39731U 14024A   25344.22290785  .00000364  00000+0  12379-3 0  9994",
        "tle_line2": "2 39731  98.3433  56.1865 0001085  95.2093 264.9221 14.42060311611329"
      },
      "geometry": {
        "type": "Point",
        "coordinates": [
          105.08241251315867,
          -78.94839012123259
        ]
      }
    }
  ]
}